H-2A R/B                
1 28932U 06002B   26167.39538840  .00005652  00000+0  27285-3 0  9998
2 28932  98.2562 323.1522 0049582 265.0773  94.4797 15.18052150109406
RESURS-DK 1             
1 29228U 06021A   26167.57263848  .00001907  00000+0  11318-3 0  9990
2 29228  69.9342 341.1432 0006930 292.5196  67.5236 15.13216709102487
CZ-4B R/B               
1 29507U 06046C   26167.59358038  .00003365  00000+0  16804-3 0  9990
2 29507  97.5449 212.2025 0030986 284.8948  74.8854 15.17780624 75049
CZ-2C R/B               
1 31114U 07010B   26167.56678692  .00000065  00000+0  48811-4 0  9995
2 31114  98.4099 275.9480 0059063   7.9386 352.2713 14.20276086993754
COSMO-SKYMED 1          
1 31598U 07023A   26167.60031215  .00002170  00000+0  19331-3 0  9997
2 31598  97.8841 359.4509 0001281 100.3310 259.8056 14.97096552 29701
COSMOS 2428             
1 31792U 07029A   26167.57731985 -.00000121  00000+0 -39155-4 0  9999
2 31792  70.9369 355.7582 0007135 136.0932 224.0757 14.12928224978065
SL-16 R/B               
1 31793U 07029B   26167.61684153  .00000123  00000+0  88698-4 0  9995
2 31793  70.9769 324.4270 0002316 261.7193 171.0203 14.14854940979364
KORONAS-FOTON           
1 33504U 09003A   26167.49585789  .00008752  00000+0  18001-3 0  9998
2 33504  82.4282 172.9807 0011599 149.7527 210.4394 15.45710338960990
CZ-2C R/B               
1 37731U 11030B   26167.65660221  .00001066  00000+0  13972-3 0  9993
2 37731  97.8655 123.0523 0053100  29.6761 142.8072 14.81470330804747
H-2A R/B                
1 38341U 12025E   26167.48794569  .00002745  00000+0  24814-3 0  9992
2 38341  98.4830 142.5760 0043677 351.6708   8.3781 14.95717407762989
SHIJIAN-16 (SJ-16)      
1 39358U 13057A   26167.63615086  .00001157  00000+0  11494-3 0  9996
2 39358  74.9725 357.7270 0016819 232.1896 127.7770 14.92606703686268
SL-4 R/B                
1 39679U 14021B   26167.35093797  .00008958  00000+0  18744-3 0  9993
2 39679  51.6035 214.8685 0091271 102.9553 258.1644 15.41939742671486
ALOS-2                  
1 39766U 14029A   26167.59810663  .00001119  00000+0  15677-3 0  9997
2 39766  97.9226 264.7698 0001631  91.0956 269.0443 14.79469220651498
YAOGAN-29               
1 41038U 15069A   26167.63806766  .00000706  00000+0  93416-4 0  9990
2 41038  98.0022 196.2700 0002646  55.2720 304.8742 14.83085723570543
ASTRO-H (HITOMI)        
1 41337U 16012A   26167.43952971  .00002094  00000+0  11826-3 0  9995
2 41337  30.9997  79.0158 0009774 246.4113 113.5499 15.10508022567177
HXMT (HUIYAN)           
1 42758U 17034A   26167.54234378  .00002335  00000+0  12159-3 0  9992
2 42758  43.0125 186.6319 0030513 142.9275 217.3688 15.18474560497566
SAOCOM 1A               
1 43641U 18076A   26167.59595046 -.00000106  00000+0 -67323-5 0  9999
2 43641  97.8874 354.3528 0001551  79.9356 280.2032 14.82146305416017
H-2A R/B                
1 43682U 18084L   26167.61016964  .00016301  00000+0  34279-3 0  9997
2 43682  98.8575  46.3741 0023557  42.6240 317.6826 15.45135364421032
SAOCOM 1B               
1 46265U 20059A   26167.62710062  .00000498  00000+0  69126-4 0  9993
2 46265  97.8878 353.4787 0001626  85.6505 274.4894 14.82147617313403
CSS (TIANHE)            
1 48274U 21035A   26167.46514383  .00018830  00000+0  22290-3 0  9999
2 48274  41.4697 326.3961 0007507  71.1015 289.0637 15.60781847293053
COSMOS 2550             
1 48865U 21056A   26167.63284008  .00003773  00000+0  12048-3 0  9995
2 48865  67.1434 101.5829 0008396 268.6382  91.3810 15.33824349278635
CZ-2C R/B               
1 52794U 22058K   26167.28244559  .00033377  00000+0  37208-3 0  9990
2 52794  50.1832 168.2256 0032533 264.2394  95.4870 15.61797731225508
CZ-2C R/B               
1 54039U 22132E   26167.57934941  .00046950  00000+0  36544-3 0  9993
2 54039  97.2896 174.5762 0016078  86.0019 274.3082 15.71437527205850
GSLV R/B                
1 54149U 22138AN  26167.44942879  .00002621  00000+0  22281-3 0  9996
2 54149  87.3805 133.2318 0022754 146.0836 214.1856 14.97254382198702
XRISM                   
1 57800U 23137A   26167.26672448  .00004297  00000+0  23547-3 0  9992
2 57800  31.0033   5.5643 0007968 314.6443  45.3546 15.12459575152728
ACS3                    
1 59588U 24077B   26167.48776493  .00021750  00000+0  16083-1 0  9998
2 59588  97.1682  86.4322 0073937  64.0096 296.8663 13.93921608107942
CZ-8A R/B               
1 66004U 25231K   26167.35329617 -.00000051  00000+0  40037-4 0  9991
2 66004  50.0057  42.8640 0116479 221.0693 138.1410 14.30154703 34823
SZ-21 MODULE            
1 66515U 25246C   26166.69531253  .00040520  00000+0  25047-3 0  9998
2 66515  41.4723 316.6164 0006492 340.9855  19.0747 15.76287551 33504
