OBJECT_NAME,OBJECT_ID,EPOCH,MEAN_MOTION,ECCENTRICITY,INCLINATION,RA_OF_ASC_NODE,ARG_OF_PERICENTER,MEAN_ANOMALY,EPHEMERIS_TYPE,CLASSIFICATION_TYPE,NORAD_CAT_ID,ELEMENT_SET_NO,REV_AT_EPOCH,BSTAR,MEAN_MOTION_DOT,MEAN_MOTION_DDOT
H-2A R/B,2006-002B,2026-06-16T09:29:21.557760,15.18052150,.00495822,98.2562,323.1522,265.0773,94.4797,0,U,28932,999,10940,.27285308E-3,.5652E-4,0
RESURS-DK 1,2006-021A,2026-06-16T13:44:35.964672,15.13216709,.00069301,69.9342,341.1432,292.5196,67.5236,0,U,29228,999,10248,.11317677E-3,.1907E-4,0
CZ-4B R/B,2006-046C,2026-06-16T14:14:45.344832,15.17780624,.0030986,97.5449,212.2025,284.8948,74.8854,0,U,29507,999,7504,.16804309E-3,.3365E-4,0
CZ-2C R/B,2007-010B,2026-06-16T13:36:10.389888,14.20276086,.00590639,98.4099,275.9480,7.9386,352.2713,0,U,31114,999,99375,.48811306E-4,.65E-6,0
COSMO-SKYMED 1,2007-023A,2026-06-16T14:24:26.969760,14.97096552,.00012818,97.8841,359.4509,100.3310,259.8056,0,U,31598,999,2970,.19330866E-3,.217E-4,0
COSMOS 2428,2007-029A,2026-06-16T13:51:20.435040,14.12928224,.00071359,70.9369,355.7582,136.0932,224.0757,0,U,31792,999,97806,-.39154776E-4,-.121E-5,0
SL-16 R/B,2007-029B,2026-06-16T14:48:15.108192,14.14854940,.0002316,70.9769,324.4270,261.7193,171.0203,0,U,31793,999,97936,.88697921E-4,.123E-5,0
KORONAS-FOTON,2009-003A,2026-06-16T11:54:02.121696,15.45710338,.00115993,82.4282,172.9807,149.7527,210.4394,0,U,33504,999,96099,.18001385E-3,.8752E-4,0
CZ-2C R/B,2011-030B,2026-06-16T15:45:30.430944,14.81470330,.00531003,97.8655,123.0523,29.6761,142.8072,0,U,37731,999,80474,.13971996E-3,.1066E-4,0
H-2A R/B,2012-025E,2026-06-16T11:42:38.507616,14.95717407,.00436778,98.4830,142.5760,351.6708,8.3781,0,U,38341,999,76298,.24814334E-3,.2745E-4,0
SHIJIAN-16 (SJ-16),2013-057A,2026-06-16T15:16:03.434304,14.92606703,.00168193,74.9725,357.7270,232.1896,127.7770,0,U,39358,999,68626,.11493962E-3,.1157E-4,0
SL-4 R/B,2014-021B,2026-06-16T08:25:21.040608,15.41939742,.0091271,51.6035,214.8685,102.9553,258.1644,0,U,39679,999,67148,.18744451E-3,.8958E-4,0
ALOS-2,2014-029A,2026-06-16T14:21:16.412832,14.79469220,.00016314,97.9226,264.7698,91.0956,269.0443,0,U,39766,999,65149,.15677089E-3,.1119E-4,0
YAOGAN-29,2015-069A,2026-06-16T15:18:49.045824,14.83085723,.00026463,98.0022,196.2700,55.2720,304.8742,0,U,41038,999,57054,.93415745E-4,.706E-5,0
ASTRO-H (HITOMI),2016-012A,2026-06-16T10:32:55.366944,15.10508022,.00097749,30.9997,79.0158,246.4113,113.5499,0,U,41337,999,56717,.1182573E-3,.2094E-4,0
HXMT (HUIYAN),2017-034A,2026-06-16T13:00:58.502592,15.18474560,.00305132,43.0125,186.6319,142.9275,217.3688,0,U,42758,999,49756,.12159439E-3,.2335E-4,0
SAOCOM 1A,2018-076A,2026-06-16T14:18:10.119744,14.82146305,.00015518,97.8874,354.3528,79.9356,280.2032,0,U,43641,999,41601,-.6732271E-5,-.106E-5,0
H-2A R/B,2018-084L,2026-06-16T14:38:38.656896,15.45135364,.00235576,98.8575,46.3741,42.6240,317.6826,0,U,43682,999,42103,.34278945E-3,.16301E-3,0
SAOCOM 1B,2020-059A,2026-06-16T15:03:01.493568,14.82147617,.00016267,97.8878,353.4787,85.6505,274.4894,0,U,46265,999,31340,.69126439E-4,.498E-5,0
CSS (TIANHE),2021-035A,2026-06-16T11:09:48.426912,15.60781847,.0007507,41.4697,326.3961,71.1015,289.0637,0,U,48274,999,29305,.22289539E-3,.1883E-3,0
COSMOS 2550,2021-056A,2026-06-16T15:11:17.382912,15.33824349,.00083967,67.1434,101.5829,268.6382,91.3810,0,U,48865,999,27863,.12047899E-3,.3773E-4,0
CZ-2C R/B,2022-058K,2026-06-16T06:46:43.298976,15.61797731,.0032533,50.1832,168.2256,264.2394,95.4870,0,U,52794,999,22550,.37208E-3,.33377E-3,0
CZ-2C R/B,2022-132E,2026-06-16T13:54:15.789024,15.71437527,.00160787,97.2896,174.5762,86.0019,274.3082,0,U,54039,999,20585,.36544424E-3,.4695E-3,0
GSLV R/B,2022-138AN,2026-06-16T10:47:10.647456,14.97254382,.00227549,87.3805,133.2318,146.0836,214.1856,0,U,54149,999,19870,.22281342E-3,.2621E-4,0
XRISM,2023-137A,2026-06-16T06:24:04.995072,15.12459575,.0007968,31.0033,5.5643,314.6443,45.3546,0,U,57800,999,15272,.23547E-3,.4297E-4,0
ACS3,2024-077B,2026-06-16T11:42:22.889952,13.93921608,.00739373,97.1682,86.4322,64.0096,296.8663,0,U,59588,999,10794,.16082549E-1,.2175E-3,0
CZ-8A R/B,2025-231K,2026-06-16T08:28:44.789088,14.30154703,.01164797,50.0057,42.8640,221.0693,138.1410,0,U,66004,999,3482,.40037265E-4,-.51E-6,0
SZ-21 MODULE,2025-246C,2026-06-15T16:41:15.002592,15.76287551,.00064925,41.4723,316.6164,340.9855,19.0747,0,U,66515,999,3350,.25046654E-3,.4052E-3,0
